{
    "links": {
        "self": "http://www.neowsapp.com/rest/v1/neo/3843088?api_key=iIulBulltgU6a56xZRHN4H3l9WmuAYTsLGpBGhQ2"
    },
    "id": "3843088",
    "neo_reference_id": "3843088",
    "name": "(2019 NO)",
    "designation": "2019 NO",
    "nasa_jpl_url": "http://ssd.jpl.nasa.gov/sbdb.cgi?sstr=3843088",
    "absolute_magnitude_h": 21.3,
    "estimated_diameter": {
        "kilometers": {
            "estimated_diameter_min": 0.1460679643,
            "estimated_diameter_max": 0.3266178974
        },
        "meters": {
            "estimated_diameter_min": 146.0679642714,
            "estimated_diameter_max": 326.6178974458
        },
        "miles": {
            "estimated_diameter_min": 0.090762397,
            "estimated_diameter_max": 0.2029508896
        },
        "feet": {
            "estimated_diameter_min": 479.2256199,
            "estimated_diameter_max": 1071.581062656
        }
    },
    "is_potentially_hazardous_asteroid": false,
    "close_approach_data": [
        {
            "close_approach_date": "1966-06-25",
            "close_approach_date_full": "1966-Jun-25 13:25",
            "epoch_date_close_approach": -111062100000,
            "relative_velocity": {
                "kilometers_per_second": "5.9222644023",
                "kilometers_per_hour": "21320.1518481526",
                "miles_per_hour": "13247.5132414257"
            },
            "miss_distance": {
                "astronomical": "0.5737037856",
                "lunar": "223.1707725984",
                "kilometers": "85824864.336696672",
                "miles": "53329097.7956991936"
            },
            "orbiting_body": "Juptr"
        },
        {
            "close_approach_date": "2019-07-08",
            "close_approach_date_full": "2019-Jul-08 05:22",
            "epoch_date_close_approach": 1562563320000,
            "relative_velocity": {
                "kilometers_per_second": "7.3329055792",
                "kilometers_per_hour": "26398.460085002",
                "miles_per_hour": "16402.9764900391"
            },
            "miss_distance": {
                "astronomical": "0.3835413117",
                "lunar": "149.1975702513",
                "kilometers": "57376963.287326079",
                "miles": "35652391.7633707302"
            },
            "orbiting_body": "Earth"
        },
        {
            "close_approach_date": "2030-07-10",
            "close_approach_date_full": "2030-Jul-10 23:28",
            "epoch_date_close_approach": 1909956480000,
            "relative_velocity": {
                "kilometers_per_second": "10.1436718623",
                "kilometers_per_hour": "36517.2187041918",
                "miles_per_hour": "22690.3795887241"
            },
            "miss_distance": {
                "astronomical": "0.4695425018",
                "lunar": "182.6520332002",
                "kilometers": "70242558.143751166",
                "miles": "43646701.7060754508"
            },
            "orbiting_body": "Earth"
        },
        {
            "close_approach_date": "2037-10-02",
            "close_approach_date_full": "2037-Oct-02 19:51",
            "epoch_date_close_approach": 2138125860000,
            "relative_velocity": {
                "kilometers_per_second": "7.6850474294",
                "kilometers_per_hour": "27666.1707456629",
                "miles_per_hour": "17190.6825947148"
            },
            "miss_distance": {
                "astronomical": "1.173123278",
                "lunar": "456.344955142",
                "kilometers": "175496743.63621786",
                "miles": "109048619.843852068"
            },
            "orbiting_body": "Juptr"
        }
    ],
    "orbital_data": {
        "orbit_id": "6",
        "orbit_determination_date": "2019-07-26 07:25:07",
        "first_observation_date": "2019-07-01",
        "last_observation_date": "2019-07-25",
        "data_arc_in_days": 24,
        "observations_used": 39,
        "orbit_uncertainty": "6",
        "minimum_orbit_intersection": ".27848",
        "jupiter_tisserand_invariant": "2.902",
        "epoch_osculation": "2459000.5",
        "eccentricity": ".587808203437995",
        "semi_major_axis": "3.092933353561869",
        "inclination": "12.17413167315147",
        "ascending_node_longitude": "266.082626558303",
        "orbital_period": "1986.800541906924",
        "perihelion_distance": "1.274881755651214",
        "perihelion_argument": "30.35785184583495",
        "aphelion_distance": "4.910984951472524",
        "perihelion_time": "2458699.626854998546",
        "mean_anomaly": "54.51696328639193",
        "mean_motion": ".1811958434712693",
        "equinox": "J2000",
        "orbit_class": {
            "orbit_class_type": "AMO",
            "orbit_class_description": "Near-Earth asteroid orbits similar to that of 1221 Amor",
            "orbit_class_range": "1.017 AU < q (perihelion) < 1.3 AU"
        }
    },
    "is_sentry_object": false
}